OBJECT_NAME,OBJECT_ID,EPOCH,MEAN_MOTION,ECCENTRICITY,INCLINATION,RA_OF_ASC_NODE,ARG_OF_PERICENTER,MEAN_ANOMALY,EPHEMERIS_TYPE,CLASSIFICATION_TYPE,NORAD_CAT_ID,ELEMENT_SET_NO,REV_AT_EPOCH,BSTAR,MEAN_MOTION_DOT,MEAN_MOTION_DDOT
KUIPER-00042,2025-134D,2026-03-01T01:03:31.994784,14.79958764,.00075787,51.8984,279.8236,249.7430,110.2718,0,U,64503,999,3867,-.22333279E-3,-.1927E-4,0
KUIPER-00043,2025-134E,2026-02-28T23:23:25.433952,14.83763151,.0000875,51.9007,271.7921,300.2714,59.8164,0,U,64504,999,3878,.56938E-3,.4533E-4,0
KUIPER-00044,2025-134F,2026-03-01T00:55:56.812800,14.79900741,.00082911,51.8989,284.8462,244.6316,115.3788,0,U,64505,999,3860,.54510238E-3,.3934E-4,0
KUIPER-00046,2025-134G,2026-03-01T01:02:07.092096,14.79926236,.0000775,51.8975,281.2880,106.2007,253.9041,0,U,64506,999,3865,-.34440423E-4,-.484E-5,0
KUIPER-00047,2025-134H,2026-02-28T23:35:37.021632,14.77219601,.00027122,51.8975,254.1846,114.2400,245.8845,0,U,64507,999,3902,.50242339E-3,.3377E-4,0
KUIPER-00048,2025-134J,2026-02-28T22:30:22.414752,14.79945202,.0001288,51.8974,254.2814,97.0941,263.0168,0,U,64508,999,3902,.58037E-3,.4207E-4,0
KUIPER-00049,2025-134K,2026-02-26T00:27:03.623616,14.79940750,.00009899,51.8985,280.6656,122.5851,237.5207,0,U,64509,999,3840,.41952551E-4,.99E-6,0
KUIPER-00050,2025-134L,2026-03-01T11:34:35.333760,14.97287739,.0003983,51.8880,249.2521,290.2231,69.8311,0,U,64510,999,3914,.7161E-3,.8143E-4,0
KUIPER-00051,2025-134M,2026-02-28T23:59:49.366752,14.83695110,.00009087,51.9000,264.4345,89.5666,270.5402,0,U,64511,999,3888,.51974234E-3,.4111E-4,0
KUIPER-00053,2025-134P,2026-02-28T23:55:53.967360,14.79933389,.00010822,51.9000,261.5337,127.3413,232.7648,0,U,64513,999,3892,-.79089996E-3,-.6245E-4,0
KUIPER-00054,2025-134Q,2026-02-28T22:26:49.120800,14.79905188,.0000401,51.8966,256.7813,137.3310,222.7683,0,U,64514,999,3898,.52925E-3,.3813E-4,0
KUIPER-00055,2025-134R,2026-03-01T11:43:20.301888,15.20199580,.00003,51.8868,218.3986,265.3229,94.7716,0,U,64515,999,3957,.99283E-3,.21536E-3,0
KUIPER-00056,2025-134S,2026-02-28T23:47:46.927968,14.83460663,.00010272,51.9010,261.8658,54.1607,305.9452,0,U,64516,999,3892,.50190523E-3,.3938E-4,0
KUIPER-00057,2025-134T,2026-02-28T23:41:13.178112,14.83743745,.00042266,51.8985,269.3903,242.1296,117.9240,0,U,64517,999,3881,.58258985E-3,.4641E-4,0
KUIPER-00058,2025-134U,2026-02-28T23:52:17.928480,14.79916281,.00007694,51.8993,263.9843,107.6523,252.4524,0,U,64518,999,3889,.52574599E-3,.3787E-4,0
KUIPER-00059,2025-134V,2026-02-28T23:59:45.358656,14.79885632,.00014166,51.8983,259.0123,129.5725,230.5362,0,U,64519,999,3896,.52621807E-3,.3788E-4,0
KUIPER-00060,2025-134W,2026-02-28T23:48:16.053408,14.83523493,.00016637,51.9011,259.3429,61.6398,298.4734,0,U,64520,999,3894,.54245743E-3,.4282E-4,0
KUIPER-00061,2025-134X,2026-02-28T23:48:04.544928,14.79939934,.00015771,51.8987,266.5533,82.2136,277.9005,0,U,64521,999,3884,-.51590755E-3,-.4153E-4,0
KUIPER-00062,2025-134Y,2026-02-28T23:44:15.031104,14.79973256,.00010309,51.8942,269.1008,148.6976,211.4047,0,U,64522,999,3882,.4560668E-3,.326E-4,0
KUIPER-00063,2025-134Z,2026-02-28T23:32:51.430848,14.79260018,.000006,51.9014,276.6086,102.0280,258.0689,0,U,64523,999,3871,.67767E-2,.5101E-3,0
KUIPER-00064,2025-134AA,2026-02-28T23:36:33.416640,14.79993711,.00008138,51.9016,274.0183,83.0928,277.0127,0,U,64524,999,3875,.55534354E-3,.4021E-4,0
KUIPER-00065,2025-134AB,2026-03-01T00:00:02.000160,14.79222148,.00013631,51.9024,279.0887,200.3890,283.9618,0,U,64525,999,572,.39663186E-2,.29642E-3,0
KUIPER-00066,2025-134AC,2026-03-01T12:00:16.809120,15.23022522,.0001766,51.8711,222.7528,251.6619,108.4170,0,U,64526,999,3951,.86997E-3,.20476E-3,0
KUIPER-00069,2025-151A,2026-03-01T01:41:10.260096,14.79943350,.00009469,51.9018,318.7392,85.9275,274.1796,0,U,64816,999,3548,.20872839E-3,.1371E-4,0
KUIPER-00070,2025-151B,2026-03-01T03:28:06.466656,14.79866784,.00008893,51.9009,343.3472,93.0043,267.1021,0,U,64817,999,3515,.8252472E-3,.6066E-4,0
KUIPER-00071,2025-151C,2026-03-01T03:31:57.340416,14.79977390,.00006541,51.9020,340.8563,224.0080,136.0830,0,U,64818,999,3400,.76356463E-3,.5611E-4,0
KUIPER-00072,2025-151D,2026-03-01T03:14:34.177056,14.79942065,.00012664,51.8984,320.8984,79.2046,280.9059,0,U,64819,999,3428,.77513658E-3,.5694E-4,0
KUIPER-00073,2025-151E,2026-03-01T04:20:43.444032,14.79938995,.0001042,51.9018,340.6998,105.2556,254.8522,0,U,64820,999,3519,.29209E-3,.2006E-4,0
KUIPER-00074,2025-151F,2026-03-01T12:00:02.998944,14.90287825,.0007595,51.9033,326.6284,210.2387,72.9036,0,U,64821,999,324,.42113E-2,.41343E-3,0
