KUIPER-00042            
1 64503U 25134D   26060.04412031 -.00001927  00000+0 -22333-3 0  9998
2 64503  51.8984 279.8236 0007578 249.7430 110.2718 14.79958764 38672
KUIPER-00043            
1 64504U 25134E   26059.97459993  .00004533  00000+0  56938-3 0  9999
2 64504  51.9007 271.7921 0000875 300.2714  59.8164 14.83763151 38787
KUIPER-00044            
1 64505U 25134F   26060.03885200  .00003934  00000+0  54510-3 0  9991
2 64505  51.8989 284.8462 0008291 244.6316 115.3788 14.79900741 38604
KUIPER-00046            
1 64506U 25134G   26060.04313764 -.00000484  00000+0 -34440-4 0  9994
2 64506  51.8975 281.2880 0000775 106.2007 253.9041 14.79926236 38657
KUIPER-00047            
1 64507U 25134H   26059.98306738  .00003377  00000+0  50242-3 0  9998
2 64507  51.8975 254.1846 0002712 114.2400 245.8845 14.77219601 39021
KUIPER-00048            
1 64508U 25134J   26059.93775943  .00004207  00000+0  58037-3 0  9995
2 64508  51.8974 254.2814 0001288  97.0941 263.0168 14.79945202 39027
KUIPER-00049            
1 64509U 25134K   26057.01879194  .00000099  00000+0  41953-4 0  9991
2 64509  51.8985 280.6656 0000989 122.5851 237.5207 14.79940750 38402
KUIPER-00050            
1 64510U 25134L   26060.48235340  .00008143  00000+0  71610-3 0  9997
2 64510  51.8880 249.2521 0003983 290.2231  69.8311 14.97287739 39147
KUIPER-00051            
1 64511U 25134M   26059.99987693  .00004111  00000+0  51974-3 0  9999
2 64511  51.9000 264.4345 0000908  89.5666 270.5402 14.83695110 38884
KUIPER-00053            
1 64513U 25134P   26059.99715240 -.00006245  00000+0 -79090-3 0  9999
2 64513  51.9000 261.5337 0001082 127.3413 232.7648 14.79933389 38925
KUIPER-00054            
1 64514U 25134Q   26059.93529075  .00003813  00000+0  52925-3 0  9997
2 64514  51.8966 256.7813 0000401 137.3310 222.7683 14.79905188 38982
KUIPER-00055            
1 64515U 25134R   26060.48842942  .00021536  00000+0  99283-3 0  9991
2 64515  51.8868 218.3986 0000300 265.3229  94.7716 15.20199580 39576
KUIPER-00056            
1 64516U 25134S   26059.99151537  .00003938  00000+0  50191-3 0  9990
2 64516  51.9010 261.8658 0001027  54.1607 305.9452 14.83460663 38920
KUIPER-00057            
1 64517U 25134T   26059.98695808  .00004641  00000+0  58259-3 0  9999
2 64517  51.8985 269.3903 0004226 242.1296 117.9240 14.83743745 38813
KUIPER-00058            
1 64518U 25134U   26059.99465195  .00003787  00000+0  52575-3 0  9990
2 64518  51.8993 263.9843 0000769 107.6523 252.4524 14.79916281 38892
KUIPER-00059            
1 64519U 25134V   26059.99983054  .00003788  00000+0  52622-3 0  9994
2 64519  51.8983 259.0123 0001416 129.5725 230.5362 14.79885632 38966
KUIPER-00060            
1 64520U 25134W   26059.99185247  .00004282  00000+0  54246-3 0  9998
2 64520  51.9011 259.3429 0001663  61.6398 298.4734 14.83523493 38942
KUIPER-00061            
1 64521U 25134X   26059.99171927 -.00004153  00000+0 -51591-3 0  9998
2 64521  51.8987 266.5533 0001577  82.2136 277.9005 14.79939934 38841
KUIPER-00062            
1 64522U 25134Y   26059.98906286  .00003260  00000+0  45607-3 0  9999
2 64522  51.8942 269.1008 0001030 148.6976 211.4047 14.79973256 38824
KUIPER-00063            
1 64523U 25134Z   26059.98115082  .00051010  00000+0  67767-2 0  9992
2 64523  51.9014 276.6086 0000060 102.0280 258.0689 14.79260018 38711
KUIPER-00064            
1 64524U 25134AA  26059.98372010  .00004021  00000+0  55534-3 0  9999
2 64524  51.9016 274.0183 0000813  83.0928 277.0127 14.79993711 38752
KUIPER-00065            
1 64525U 25134AB  26060.00002315  .00029642  00000+0  39663-2 0  9993
2 64525  51.9024 279.0887 0001363 200.3890 283.9618 14.79222148  5722
KUIPER-00066            
1 64526U 25134AC  26060.50019455  .00020476  00000+0  86997-3 0  9991
2 64526  51.8711 222.7528 0001766 251.6619 108.4170 15.23022522 39519
KUIPER-00069            
1 64816U 25151A   26060.07025764  .00001371  00000+0  20873-3 0  9998
2 64816  51.9018 318.7392 0000946  85.9275 274.1796 14.79943350 35480
KUIPER-00070            
1 64817U 25151B   26060.14451929  .00006066  00000+0  82525-3 0  9991
2 64817  51.9009 343.3472 0000889  93.0043 267.1021 14.79866784 35155
KUIPER-00071            
1 64818U 25151C   26060.14719144  .00005611  00000+0  76356-3 0  9998
2 64818  51.9020 340.8563 0000654 224.0080 136.0830 14.79977390 34000
KUIPER-00072            
1 64819U 25151D   26060.13511779  .00005694  00000+0  77514-3 0  9990
2 64819  51.8984 320.8984 0001266  79.2046 280.9059 14.79942065 34289
KUIPER-00073            
1 64820U 25151E   26060.18105838  .00002006  00000+0  29209-3 0  9994
2 64820  51.9018 340.6998 0001042 105.2556 254.8522 14.79938995 35196
KUIPER-00074            
1 64821U 25151F   26060.50003471  .00041343  00000+0  42113-2 0  9996
2 64821  51.9033 326.6284 0007595 210.2387  72.9036 14.90287825  3246
